NORAD_CAT_ID,OBJECT_NAME,OBJECT_TYPE,EPOCH,MEAN_MOTION,ECCENTRICITY,INCLINATION,RA_OF_ASC_NODE,ARG_OF_PERICENTER,MEAN_ANOMALY,BSTAR,MEAN_MOTION_DOT,MEAN_MOTION_DDOT,TLE_LINE0,TLE_LINE1,TLE_LINE2,SEMIMAJOR_AXIS,PERIOD,APOGEE,PERIGEE,DECAYED
53606.0,STARLINK-4590,PAYLOAD,2022-12-31 04:34:40,15.08847557,0.0002237,53.2189,61.8656,32.8503,327.2627,0.00033947,5.12e-05,0.0,0 STARLINK-4590,1 53606U 22104U   22365.19074660  .00005120  00000-0  33947-3 0  9997,2 53606  53.2189  61.8656 0002237  32.8503 327.2627 15.08847557 19264,6917.857,95.437,541.27,538.175,0.0
53606.0,STARLINK-4590,PAYLOAD,2022-12-31 12:31:36,15.08841934,0.0002150999999999,53.2187,60.3781,28.1375,331.9734,0.00025095,3.708e-05,0.0,0 STARLINK-4590,1 53606U 22104U   22365.52195170  .00003708  00000-0  25095-3 0  9999,2 53606  53.2187  60.3781 0002151  28.1375 331.9734 15.08841934 19315,6917.874,95.437,541.2280000000002,538.251,0.0
53606.0,STARLINK-4590,PAYLOAD,2023-01-01 04:25:29,15.08824625,0.0002208,53.2185,57.4052,26.9854,333.1253,-1.8536e-05,-5.83e-06,0.0,0 STARLINK-4590,1 53606U 22104U   23001.18437189 -.00000583  00000-0 -18536-4 0  9991,2 53606  53.2185  57.4052 0002208  26.9854 333.1253 15.08824625 19411,6917.927,95.439,541.32,538.265,0.0
53606.0,STARLINK-4590,PAYLOAD,2023-01-01 10:47:02,15.08823236,0.0002346,53.2172,56.2134,23.4234,336.6865,-0.00015799,-2.801e-05,0.0,0 STARLINK-4590,1 53606U 22104U   23001.44933873 -.00002801  00000-0 -15799-3 0  9993,2 53606  53.2172  56.2134 0002346  23.4234 336.6865 15.08823236 20025,6917.932,95.439,541.42,538.174,0.0
53606.0,STARLINK-4590,PAYLOAD,2023-01-01 20:19:22,15.08824353,0.0002293,53.2184,54.4313,33.5302,326.5835,-0.00020765,-3.59e-05,0.0,0 STARLINK-4590,1 53606U 22104U   23001.84678392 -.00003590  00000-0 -20765-3 0  9994,2 53606  53.2184  54.4313 0002293  33.5302 326.5835 15.08824353 20088,6917.928000000001,95.439,541.379,538.207,0.0
53606.0,STARLINK-4590,PAYLOAD,2023-01-02 09:02:26,15.08833688,0.0002299,53.2186,52.0522,31.7042,328.4089,-6.2852e-05,-1.288e-05,0.0,0 STARLINK-4590,1 53606U 22104U   23002.37669569 -.00001288  00000-0 -62852-4 0  9995,2 53606  53.2186  52.0522 0002299  31.7042 328.4089 15.08833688 20165,6917.9,95.438,541.355,538.174,0.0
53606.0,STARLINK-4590,PAYLOAD,2023-01-02 20:10:07,15.08841174,0.0002369,53.2189,49.9706,33.6181,326.4961,2.9645e-05,1.83e-06,0.0,0 STARLINK-4590,1 53606U 22104U   23002.84036985  .00000183  00000-0  29645-4 0  9991,2 53606  53.2189  49.9706 0002369  33.6181 326.4961 15.08841174 19669,6917.877,95.437,541.381,538.1030000000002,0.0
53606.0,STARLINK-4590,PAYLOAD,2023-01-03 12:04:00,15.08827502,0.000239,53.2185,46.9971,35.0008,325.1141,0.00026152,3.875e-05,0.0,0 STARLINK-4590,1 53606U 22104U   23003.50277984  .00003875  00000-0  26152-3 0  9991,2 53606  53.2185  46.9971 0002390  35.0008 325.1141 15.08827502 19760,6917.919,95.438,541.437,538.13,0.0
53606.0,STARLINK-4590,PAYLOAD,2023-01-04 08:44:01,15.08837406,0.0002246,53.2184,43.1326,37.0624,323.0522,0.00019107,2.754e-05,0.0,0 STARLINK-4590,1 53606U 22104U   23004.36390193  .00002754  00000-0  19107-3 0  9991,2 53606  53.2184  43.1326 0002246  37.0624 323.0522 15.08837406 20461,6917.888000000001,95.438,541.307,538.2,0.0
53606.0,STARLINK-4590,PAYLOAD,2023-01-04 19:51:42,15.08852998,0.0002349,53.2182,41.0501,38.0866,322.0292,0.00021084,3.07e-05,0.0,0 STARLINK-4590,1 53606U 22104U   23004.82757036  .00003070  00000-0  21084-3 0  9994,2 53606  53.2182  41.0501 0002349  38.0866 322.0292 15.08852998 19963,6917.840999999999,95.437,541.331,538.081,0.0
53606.0,STARLINK-4590,PAYLOAD,2023-01-05 08:34:46,15.08863042,0.0002417,53.2175,38.6707,35.4957,324.6196,0.00035807,5.419e-05,0.0,0 STARLINK-4590,1 53606U 22104U   23005.35748446  .00005419  00000-0  35807-3 0  9995,2 53606  53.2175  38.6707 0002417  35.4957 324.6196 15.08863042 20610,6917.81,95.436,541.347,538.003,0.0
53606.0,STARLINK-4590,PAYLOAD,2023-01-06 08:25:34,15.08829065,0.0002263,53.2182,34.2103,18.6842,341.4233,-0.00033009,-5.536e-05,0.0,0 STARLINK-4590,1 53606U 22104U   23006.35109235 -.00005536  00000-0 -33009-3 0  9997,2 53606  53.2182  34.2103 0002263  18.6842 341.4233 15.08829065 20194,6917.914000000002,95.438,541.344,538.2130000000002,0.0
53606.0,STARLINK-4590,PAYLOAD,2023-01-07 01:54:48,15.08836755,0.0002389,53.2184,30.9403,30.1384,329.9745,-0.00015378,-2.735e-05,0.0,0 STARLINK-4590,1 53606U 22104U   23007.07973051 -.00002735  00000-0 -15378-3 0  9999,2 53606  53.2184  30.9403 0002389  30.1384 329.9745 15.08836755 20307,6917.89,95.438,541.408,538.1030000000002,0.0
53606.0,STARLINK-4590,PAYLOAD,2023-01-07 17:48:40,15.08836281,0.0002491,53.2161,27.9643,13.0195,347.0861,8.827100000000001e-05,1.117e-05,0.0,0 STARLINK-4590,1 53606U 22104U   23007.74213072  .00001117  00000-0  88271-4 0  9997,2 53606  53.2161  27.9643 0002491  13.0195 347.0861 15.08836281 20975,6917.892,95.438,541.48,538.034,0.0
53606.0,STARLINK-4590,PAYLOAD,2023-01-08 01:45:36,15.08825461,0.0002478,53.2176,26.4791,24.0013,336.1095,0.00020102,2.911e-05,0.0,0 STARLINK-4590,1 53606U 22104U   23008.07334281  .00002911  00000-0  20102-3 0  9991,2 53606  53.2176  26.4791 0002478  24.0013 336.1095 15.08825461 20454,6917.925,95.438,541.504,538.076,0.0
53606.0,STARLINK-4590,PAYLOAD,2023-01-08 11:17:55,15.08838411,0.0002528,53.2176,24.6948,26.1333,333.9786,0.00033934,5.116e-05,0.0,0 STARLINK-4590,1 53606U 22104U   23008.47078118  .00005116  00000-0  33934-3 0  9996,2 53606  53.2176  24.6948 0002528  26.1333 333.9786 15.08838411 20510,6917.885,95.438,541.499,538.001,0.0
53606.0,STARLINK-4590,PAYLOAD,2023-01-08 17:39:27,15.08849965,0.0002464,53.2173,23.5061,28.8127,331.3001,0.00062825,9.727e-05,0.0,0 STARLINK-4590,1 53606U 22104U   23008.73573862  .00009727  00000-0  62825-3 0  9994,2 53606  53.2173  23.5061 0002464  28.8127 331.3001 15.08849965 21126,6917.85,95.437,541.419,538.01,0.0
53606.0,STARLINK-4590,PAYLOAD,2023-01-09 11:08:42,15.08851422,0.0002341,53.2194,20.2367,25.4864,334.6243,0.00033453,5.042e-05,0.0,0 STARLINK-4590,1 53606U 22104U   23009.46437560  .00005042  00000-0  33453-3 0  9990,2 53606  53.2194  20.2367 0002341  25.4864 334.6243 15.08851422 21234,6917.845,95.437,541.33,538.091,0.0
53606.0,STARLINK-4590,PAYLOAD,2023-01-09 17:30:14,15.08843852,0.0002393,53.2179,19.0462,27.7748,332.3371,9.6082e-05,1.241e-05,0.0,0 STARLINK-4590,1 53606U 22104U   23009.72933647  .00001241  00000-0  96082-4 0  9991,2 53606  53.2179  19.0462 0002393  27.7748 332.3371 15.08843852 20708,6917.8690000000015,95.437,541.389,538.078,0.0
53606.0,STARLINK-4590,PAYLOAD,2023-01-10 09:24:06,15.08834576,0.0002255,53.2172,16.0716,30.4256,329.6867,-3.3017e-05,-8.14e-06,0.0,0 STARLINK-4590,1 53606U 22104U   23010.39174161 -.00000814  00000-0 -33017-4 0  9990,2 53606  53.2172  16.0716 0002255  30.4256 329.6867 15.08834576 20805,6917.897,95.438,541.322,538.202,0.0
53606.0,STARLINK-4590,PAYLOAD,2023-01-10 17:21:01,15.08841248,0.0002436,53.2183,14.5855,32.6778,327.4364,2.0862e-05,4.4e-07,0.0,0 STARLINK-4590,1 53606U 22104U   23010.72293929  .00000044  00000-0  20862-4 0  9998,2 53606  53.2183  14.5855 0002436  32.6778 327.4364 15.08841248 21429,6917.877,95.437,541.427,538.056,0.0
53606.0,STARLINK-4590,PAYLOAD,2023-01-11 06:04:06,15.08858663,0.0002546,53.2181,12.2064,36.351,323.7655,0.00042466,6.48e-05,0.0,0 STARLINK-4590,1 53606U 22104U   23011.25285224  .00006480  00000-0  42466-3 0  9999,2 53606  53.2181  12.2064 0002546  36.3510 323.7655 15.08858663 20937,6917.823,95.436,541.45,537.927,0.0
53606.0,STARLINK-4590,PAYLOAD,2023-01-11 07:39:29,15.08853297,0.00025,53.2189,11.9087,33.647,326.468,0.00039801,6.054e-05,0.0,0 STARLINK-4590,1 53606U 22104U   23011.31909424  .00006054  00000-0  39801-3 0  9997,2 53606  53.2189  11.9087 0002500  33.6470 326.4680 15.08853297 21512,6917.84,95.437,541.434,537.975,0.0
53606.0,STARLINK-4590,PAYLOAD,2023-01-11 17:11:48,15.08844668,0.0002595,53.2184,10.1257,32.5267,327.5884,0.00016364,2.317e-05,0.0,0 STARLINK-4590,1 53606U 22104U   23011.71653588  .00002317  00000-0  16364-3 0  9995,2 53606  53.2184  10.1257 0002595  32.5267 327.5884 15.08844668 21007,6917.866,95.437,541.526,537.936,0.0
53606.0,STARLINK-4590,PAYLOAD,2023-01-11 20:22:34,15.08846483,0.0002547,53.2187,9.5317,30.0602,330.0536,0.00014453,2.013e-05,0.0,0 STARLINK-4590,1 53606U 22104U   23011.84901454  .00002013  00000-0  14453-3 0  9997,2 53606  53.2187   9.5317 0002547  30.0602 330.0536 15.08846483 21596,6917.861,95.437,541.488,537.964,0.0
53606.0,STARLINK-4590,PAYLOAD,2023-01-12 05:54:52,15.08864785,0.0002408,53.2184,7.7457,32.8853,327.2289,0.00040588,6.182e-05,0.0,0 STARLINK-4590,1 53606U 22104U   23012.24644266  .00006182  00000-0  40588-3 0  9996,2 53606  53.2184   7.7457 0002408  32.8853 327.2289 15.08864785 21084,6917.805,95.436,541.335,538.004,0.0
53606.0,STARLINK-4590,PAYLOAD,2023-01-12 17:02:34,15.08852977,0.0002624,53.2178,5.6655,36.0321,324.0848,0.00020298,2.945e-05,0.0,0 STARLINK-4590,1 53606U 22104U   23012.71012679  .00002945  00000-0  20298-3 0  9994,2 53606  53.2178   5.6655 0002624  36.0321 324.0848 15.08852977 21154,6917.840999999999,95.437,541.521,537.89,0.0
53606.0,STARLINK-4590,PAYLOAD,2023-01-12 23:24:08,15.08827637,0.0002409,53.2181,4.4748,44.5677,315.5508,-0.00039744,-6.606e-05,0.0,0 STARLINK-4590,1 53606U 22104U   23012.97509465 -.00006606  00000-0 -39744-3 0  9992,2 53606  53.2181   4.4748 0002409  44.5677 315.5508 15.08827637 21194,6917.9180000000015,95.438,541.45,538.117,0.0
53606.0,STARLINK-4590,PAYLOAD,2023-01-13 05:45:40,15.08828634,0.0002104,53.2189,3.2857,40.0524,320.0623,-0.00017959,-3.144e-05,0.0,0 STARLINK-4590,1 53606U 22104U   23013.24005453 -.00003144  00000-0 -17959-3 0  9999,2 53606  53.2189   3.2857 0002104  40.0524 320.0623 15.08828634 21809,6917.915,95.438,541.236,538.325,0.0
